GPS BIIR-2  (PRN 13)    
1 24876U 97035A   23317.89597905  .00000090  00000+0  00000+0 0  9996
2 24876  55.6073 135.5870 0075003  53.5546 307.1722  2.00564601192971
GPS BIIR-4  (PRN 20)    
1 26360U 00025A   23319.00198823 -.00000043  00000+0  00000+0 0  9999
2 26360  54.4921  57.6704 0041832 204.1911 325.2028  2.00565733172316
GPS BIIR-5  (PRN 22)    
1 26407U 00040A   23318.22168306  .00000008  00000+0  00000+0 0  9994
2 26407  55.1674 252.7808 0152439 292.7803 235.2682  2.00557111170970
GPS BIIR-8  (PRN 16)    
1 27663U 03005A   23318.81909486  .00000012  00000+0  00000+0 0  9995
2 27663  55.2082 252.5679 0134888  45.2272 330.7114  2.00561857152357
GPS BIIR-9  (PRN 21)    
1 27704U 03010A   23319.06856317 -.00000067  00000+0  00000+0 0  9990
2 27704  55.1150   2.4749 0250933 320.3900  94.2058  2.00554432151149
GPS BIIR-11 (PRN 19)    
1 28190U 04009A   23318.81853113 -.00000032  00000+0  00000+0 0  9994
2 28190  55.6355 313.6250 0092128 141.3875  30.8739  2.00565053143983
GPS BIIR-13 (PRN 02)    
1 28474U 04045A   23319.10239190 -.00000066  00000+0  00000+0 0  9992
2 28474  55.4426   2.8193 0164433 284.6090 145.7308  2.00557330139462
GPS BIIRM-1 (PRN 17)    
1 28874U 05038A   23318.09330655 -.00000033  00000+0  00000+0 0  9998
2 28874  55.6862 311.1080 0140427 280.9817 110.9035  2.00570632132864
GPS BIIRM-2 (PRN 31)    
1 29486U 06042A   23317.97613795  .00000082  00000+0  00000+0 0  9992
2 29486  54.6790 188.8560 0104607  34.5859 173.4151  2.00566279125412
GPS BIIRM-3 (PRN 12)    
1 29601U 06052A   23318.11242763  .00000009  00000+0  00000+0 0  9991
2 29601  55.2316 251.5598 0084862  79.5924 281.3722  2.00553339124430
GPS BIIRM-4 (PRN 15)    
1 32260U 07047A   23317.92697281  .00000064  00000+0  00000+0 0  9999
2 32260  53.5002 119.2146 0152442  72.5643 289.1025  2.00575252117834
GPS BIIRM-5 (PRN 29)    
1 32384U 07062A   23318.46553755 -.00000032  00000+0  00000+0 0  9996
2 32384  55.8196 311.9249 0024041 152.1864   7.9346  2.00562301116548
GPS BIIRM-6 (PRN 07)    
1 32711U 08012A   23317.83994797  .00000083  00000+0  00000+0 0  9996
2 32711  54.4477 187.6760 0178062 236.2579 122.1370  2.00559751114770
GPS BIIRM-8 (PRN 05)    
1 35752U 09043A   23318.32149698 -.00000033  00000+0  00000+0 0  9992
2 35752  55.4937  64.8847 0056788  70.3557 293.1760  2.00553900104394
GPS BIIF-1  (PRN 25)    
1 36585U 10022A   23318.38748600  .00000014  00000+0  00000+0 0  9998
2 36585  54.5328 246.7186 0112408  59.8984 110.0888  2.00565585 98626
GPS BIIF-3  (PRN 24)    
1 38833U 12053A   23318.01375563  .00000086  00000+0  00000+0 0  9995
2 38833  53.5100 182.3043 0146474  53.4375 308.0095  2.00568371 80460
GPS BIIF-4  (PRN 27)    
1 39166U 13023A   23317.87766967 -.00000032  00000+0  00000+0 0  9990
2 39166  55.3006 307.2846 0116622  41.5397 319.3442  2.00564150 76904
GPS BIIF-5  (PRN 30)    
1 39533U 14008A   23318.37802339  .00000080  00000+0  00000+0 0  9994
2 39533  53.5957 187.8572 0067097 215.2484 144.4104  2.00555714 70714
GPS BIIF-6  (PRN 06)    
1 39741U 14026A   23318.16176159 -.00000067  00000+0  00000+0 0  9992
2 39741  56.7030   8.2435 0031577 309.5490  50.2397  2.00552204 69564
GPS BIIF-7  (PRN 09)    
1 40105U 14045A   23316.74916704  .00000082  00000+0  00000+0 0  9995
2 40105  54.8412 126.2980 0027592 115.3597 244.9523  2.00551422 67070
GPS BIIF-8  (PRN 03)    
1 40294U 14068A   23317.11992653 -.00000032  00000+0  00000+0 0  9994
2 40294  56.2375  67.7271 0048735  62.8035 297.6822  2.00576361 66211
GPS BIIF-9  (PRN 26)    
1 40534U 15013A   23318.75847046  .00000018  00000+0  00000+0 0  9991
2 40534  53.4306 243.3314 0084201  26.9175 333.5449  2.00550209 62860
GPS BIIF-10 (PRN 08)    
1 40730U 15033A   23317.92308758 -.00000032  00000+0  00000+0 0  9998
2 40730  54.7877 305.8627 0088501  14.3752 345.8748  2.00551326 61010
GPS BIIF-11 (PRN 10)    
1 41019U 15062A   23317.97289486 -.00000030  00000+0  00000+0 0  9990
2 41019  56.2211  67.5452 0092368 222.0713 137.2113  2.00562152 58855
GPS BIIF-12 (PRN 32)    
1 41328U 16007A   23317.06320681  .00000082  00000+0  00000+0 0  9992
2 41328  55.0437 127.0795 0073021 233.6558 125.6933  2.00572398 56848
GPS BIII-1  (PRN 04)    
1 43873U 18109A   23316.00790440  .00000091  00000+0  00000+0 0  9991
2 43873  55.2180 129.6511 0027170 189.7425  22.5433  2.00571205 36051
GPS BIII-2  (PRN 18)    
1 44506U 19056A   23318.85083113 -.00000068  00000+0  00000+0 0  9999
2 44506  55.8294   8.6095 0038545 188.7998 174.5581  2.00566976 31115
GPS BIII-3  (PRN 23)    
1 45854U 20041A   23317.92516972 -.00000033  00000+0  00000+0 0  9995
2 45854  55.9425  65.9410 0038845 189.1363 168.4072  2.00561635 25050
GPS BIII-4  (PRN 14)    
1 46826U 20078A   23318.96222023  .00000015  00000+0  00000+0 0  9990
2 46826  54.2763 249.1562 0037238 194.5882 167.7394  2.00562655 22545
GPS BIII-5  (PRN 11)    
1 48859U 21054A   23318.21824039 -.00000070  00000+0  00000+0 0  9998
2 48859  55.3487  10.3868 0014006 219.1389 150.0980  2.00569675 17784
GPS BIII-6  (PRN 28)    
1 55268U 23009A   23318.91577271  .00000082  00000+0  00000+0 0  9994
2 55268  55.0850 185.6086 0005363  89.1720 100.7618  2.00550681  6274
